{
  "type": "FeatureCollection",
  "features": [
    {
      "type": "Feature",
      "properties": {
        "norad_id": 36441,
        "name": "COSMOS 2251 DEB",
        "group": "cosmos-2251-debris",
        "lat": -45.35314810320901,
        "lon": -16.65163175991034,
        "alt_km": 616.5813381337975,
        "timestamp": "2025-12-07T14:37:05.600827+00:00",
        "meta_object_name": "COSMOS 2251 DEB",
        "meta_object_id": "1993-036BAQ",
        "meta_epoch": "2025-12-04T18:18:25.005024",
        "meta_mean_motion": 15.06603971,
        "meta_eccentricity": 0.01084902,
        "meta_inclination": 73.8352,
        "meta_ra_of_asc_node": 6.3404,
        "meta_arg_of_pericenter": 107.4279,
        "meta_mean_anomaly": 253.8807,
        "meta_ephemeris_type": 0,
        "meta_classification_type": "U",
        "meta_norad_cat_id": 36441,
        "meta_element_set_no": 999,
        "meta_rev_at_epoch": 86845,
        "meta_bstar": 0.00090032635,
        "meta_mean_motion_dot": 0.00015248,
        "meta_mean_motion_ddot": 0,
        "tle_line1": "1 36441U 93036BAQ 25338.76278941  .00015248  00000+0  90033-3 0  9991",
        "tle_line2": "2 36441  73.8352   6.3404 0108490 107.4279 253.8807 15.06603971868459"
      },
      "geometry": {
        "type": "Point",
        "coordinates": [
          -16.65163175991034,
          -45.35314810320901
        ]
      }
    },
    {
      "type": "Feature",
      "properties": {
        "norad_id": 36442,
        "name": "COSMOS 2251 DEB",
        "group": "cosmos-2251-debris",
        "lat": 45.97295542969071,
        "lon": 67.55160578073831,
        "alt_km": 483.3912605041487,
        "timestamp": "2025-12-07T14:37:05.600849+00:00",
        "meta_object_name": "COSMOS 2251 DEB",
        "meta_object_id": "1993-036BAR",
        "meta_epoch": "2025-11-30T23:26:58.990560",
        "meta_mean_motion": 15.24721511,
        "meta_eccentricity": 0.00074124,
        "meta_inclination": 73.9503,
        "meta_ra_of_asc_node": 64.3117,
        "meta_arg_of_pericenter": 319.957,
        "meta_mean_anomaly": 40.1082,
        "meta_ephemeris_type": 0,
        "meta_classification_type": "U",
        "meta_norad_cat_id": 36442,
        "meta_element_set_no": 999,
        "meta_rev_at_epoch": 85736,
        "meta_bstar": 0.0052461948,
        "meta_mean_motion_dot": 0.00132297,
        "meta_mean_motion_ddot": 0,
        "tle_line1": "1 36442U 93036BAR 25334.97707165  .00132297  00000+0  52462-2 0  9993",
        "tle_line2": "2 36442  73.9503  64.3117 0007412 319.9570  40.1082 15.24721511857361"
      },
      "geometry": {
        "type": "Point",
        "coordinates": [
          67.55160578073831,
          45.97295542969071
        ]
      }
    },
    {
      "type": "Feature",
      "properties": {
        "norad_id": 36451,
        "name": "COSMOS 2251 DEB",
        "group": "cosmos-2251-debris",
        "lat": 17.779289268335535,
        "lon": 159.13851458511502,
        "alt_km": 698.3334974406434,
        "timestamp": "2025-12-07T14:37:05.600859+00:00",
        "meta_object_name": "COSMOS 2251 DEB",
        "meta_object_id": "1993-036BBA",
        "meta_epoch": "2025-12-06T07:23:52.845792",
        "meta_mean_motion": 14.18714463,
        "meta_eccentricity": 0.01842542,
        "meta_inclination": 73.9539,
        "meta_ra_of_asc_node": 346.7676,
        "meta_arg_of_pericenter": 172.6411,
        "meta_mean_anomaly": 187.7508,
        "meta_ephemeris_type": 0,
        "meta_classification_type": "U",
        "meta_norad_cat_id": 36451,
        "meta_element_set_no": 999,
        "meta_rev_at_epoch": 84134,
        "meta_bstar": 0.0013122334,
        "meta_mean_motion_dot": 3.2e-05,
        "meta_mean_motion_ddot": 0,
        "tle_line1": "1 36451U 93036BBA 25340.30825053  .00003200  00000+0  13122-2 0  9995",
        "tle_line2": "2 36451  73.9539 346.7676 0184254 172.6411 187.7508 14.18714463841347"
      },
      "geometry": {
        "type": "Point",
        "coordinates": [
          159.13851458511502,
          17.779289268335535
        ]
      }
    },
    {
      "type": "Feature",
      "properties": {
        "norad_id": 36453,
        "name": "COSMOS 2251 DEB",
        "group": "cosmos-2251-debris",
        "lat": 26.75697991880923,
        "lon": -26.230075005571702,
        "alt_km": 711.191903998214,
        "timestamp": "2025-12-07T14:37:05.600870+00:00",
        "meta_object_name": "COSMOS 2251 DEB",
        "meta_object_id": "1993-036BBC",
        "meta_epoch": "2025-12-05T22:56:55.070880",
        "meta_mean_motion": 14.52531816,
        "meta_eccentricity": 0.00702998,
        "meta_inclination": 73.9232,
        "meta_ra_of_asc_node": 165.2675,
        "meta_arg_of_pericenter": 70.5371,
        "meta_mean_anomaly": 80.8599,
        "meta_ephemeris_type": 0,
        "meta_classification_type": "U",
        "meta_norad_cat_id": 36453,
        "meta_element_set_no": 999,
        "meta_rev_at_epoch": 84369,
        "meta_bstar": 0.0014781095,
        "meta_mean_motion_dot": 6.214e-05,
        "meta_mean_motion_ddot": 0,
        "tle_line1": "1 36453U 93036BBC 25339.95619295  .00006214  00000+0  14781-2 0  9995",
        "tle_line2": "2 36453  73.9232 165.2675 0070299  70.5371  80.8599 14.52531816843696"
      },
      "geometry": {
        "type": "Point",
        "coordinates": [
          -26.230075005571702,
          26.75697991880923
        ]
      }
    },
    {
      "type": "Feature",
      "properties": {
        "norad_id": 36459,
        "name": "COSMOS 2251 DEB",
        "group": "cosmos-2251-debris",
        "lat": -13.790390593706558,
        "lon": -166.9002883400663,
        "alt_km": 803.985957678171,
        "timestamp": "2025-12-07T14:37:05.600880+00:00",
        "meta_object_name": "COSMOS 2251 DEB",
        "meta_object_id": "1993-036BBJ",
        "meta_epoch": "2025-11-27T21:25:14.011392",
        "meta_mean_motion": 14.2626117,
        "meta_eccentricity": 0.0114133,
        "meta_inclination": 74.0487,
        "meta_ra_of_asc_node": 26.6161,
        "meta_arg_of_pericenter": 126.4072,
        "meta_mean_anomaly": 234.7668,
        "meta_ephemeris_type": 0,
        "meta_classification_type": "U",
        "meta_norad_cat_id": 36459,
        "meta_element_set_no": 999,
        "meta_rev_at_epoch": 7670,
        "meta_bstar": 0.0017749,
        "meta_mean_motion_dot": 4.537e-05,
        "meta_mean_motion_ddot": 0,
        "tle_line1": "1 36459U 93036BBJ 25331.89252328  .00004537  00000+0  17749-2 0  9999",
        "tle_line2": "2 36459  74.0487  26.6161 0114133 126.4072 234.7668 14.26261170 76702"
      },
      "geometry": {
        "type": "Point",
        "coordinates": [
          -166.9002883400663,
          -13.790390593706558
        ]
      }
    },
    {
      "type": "Feature",
      "properties": {
        "norad_id": 36470,
        "name": "COSMOS 2251 DEB",
        "group": "cosmos-2251-debris",
        "lat": -6.22429692785671,
        "lon": 86.88716561054997,
        "alt_km": 552.3991480359828,
        "timestamp": "2025-12-07T14:37:05.600890+00:00",
        "meta_object_name": "COSMOS 2251 DEB",
        "meta_object_id": "1993-036BBV",
        "meta_epoch": "2025-12-02T03:03:18.136800",
        "meta_mean_motion": 15.05586615,
        "meta_eccentricity": 0.00218493,
        "meta_inclination": 73.8455,
        "meta_ra_of_asc_node": 276.4446,
        "meta_arg_of_pericenter": 104.1241,
        "meta_mean_anomaly": 256.2378,
        "meta_ephemeris_type": 0,
        "meta_classification_type": "U",
        "meta_norad_cat_id": 36470,
        "meta_element_set_no": 999,
        "meta_rev_at_epoch": 65934,
        "meta_bstar": 0.0040110233,
        "meta_mean_motion_dot": 0.00058582,
        "meta_mean_motion_ddot": 0,
        "tle_line1": "1 36470U 93036BBV 25336.12729325  .00058582  00000+0  40110-2 0  9996",
        "tle_line2": "2 36470  73.8455 276.4446 0021849 104.1241 256.2378 15.05586615659346"
      },
      "geometry": {
        "type": "Point",
        "coordinates": [
          86.88716561054997,
          -6.22429692785671
        ]
      }
    },
    {
      "type": "Feature",
      "properties": {
        "norad_id": 36528,
        "name": "COSMOS 2251 DEB",
        "group": "cosmos-2251-debris",
        "lat": -45.754140684474926,
        "lon": -8.311228475102702,
        "alt_km": 739.5386018816762,
        "timestamp": "2025-12-07T14:37:05.600900+00:00",
        "meta_object_name": "COSMOS 2251 DEB",
        "meta_object_id": "1993-036BCN",
        "meta_epoch": "2025-11-28T19:45:32.756256",
        "meta_mean_motion": 14.30521775,
        "meta_eccentricity": 0.00858193,
        "meta_inclination": 74.0168,
        "meta_ra_of_asc_node": 170.5765,
        "meta_arg_of_pericenter": 223.2164,
        "meta_mean_anomaly": 136.2231,
        "meta_ephemeris_type": 0,
        "meta_classification_type": "U",
        "meta_norad_cat_id": 36528,
        "meta_element_set_no": 999,
        "meta_rev_at_epoch": 64228,
        "meta_bstar": 0.00075224171,
        "meta_mean_motion_dot": 2.015e-05,
        "meta_mean_motion_ddot": 0,
        "tle_line1": "1 36528U 93036BCN 25332.82329579  .00002015  00000+0  75224-3 0  9995",
        "tle_line2": "2 36528  74.0168 170.5765 0085819 223.2164 136.2231 14.30521775642289"
      },
      "geometry": {
        "type": "Point",
        "coordinates": [
          -8.311228475102702,
          -45.754140684474926
        ]
      }
    }
  ]
}